GLOBALSTAR M063         
1 26081U 00008A   24300.47367499 -.00000108  00000+0 -37782-3 0  9993
2 26081  51.9988   7.0850 0004691 220.8598 152.0152 11.86162095129842
GLOBALSTAR M064         
1 26084U 00008D   24300.51426212 -.00000035  00000+0  68599-3 0  9998
2 26084  52.0006 108.5593 0001207  10.7740 349.3119 11.88525435139314
GLOBALSTAR M065         
1 31571U 07020A   24300.52742072 -.00000170  00000+0 -37325-3 0  9996
2 31571  51.9890 217.4407 0010010 143.5013  27.4248 12.61979735803902
GLOBALSTAR M072         
1 31574U 07020D   24300.40802348 -.00000053  00000+0  28577-3 0  9997
2 31574  52.0080 269.5274 0000514  15.0674 153.7718 12.62267544803298
GLOBALSTAR M071         
1 31576U 07020F   24300.43890394 -.00000054  00000+0  27946-3 0  9990
2 31576  52.0052 178.6444 0001508  38.6789 132.8627 12.62261499466217
